{"epoch":1784762836,"count":18316,"objects":[{"id":"7530","name":"OSCAR 7","type":"PAYLOAD","l1":"1 07530U 74089B   26203.51400549 -.00000044  00000-0  15870-4 0  9998","l2":"2 07530 101.9908 217.1290 0012615  64.8497  89.6407 12.53698651364946"},{"id":"14129","name":"OSCAR 10","type":"PAYLOAD","l1":"1 14129U 83058B   26202.35803166  .00000044  00000-0  00000-0 0  9993","l2":"2 14129  25.9422 213.9384 5999429 125.0554 306.6315  2.05869545296197"},{"id":"14781","name":"OSCAR 11 (UOSAT 2)","type":"PAYLOAD","l1":"1 14781U 84021B   26203.25715222  .00001166  00000-0  12393-3 0  9990","l2":"2 14781  97.8082 168.4468 0009119  71.8134 288.4076 14.90861576262358"},{"id":"20442","name":"OSCAR 19 (LUSAT)","type":"PAYLOAD","l1":"1 20442U 90005G   26203.48481344  .00000064  00000-0  39421-4 0  9998","l2":"2 20442  98.8846 226.2617 0012679 101.8780 258.3826 14.34132172907450"},{"id":"22825","name":"EYESAT A","type":"PAYLOAD","l1":"1 22825U 93061C   26203.59098792  .00000052  00000-0  36652-4 0  9993","l2":"2 22825  98.6861 270.9883 0008329   4.7380 355.3880 14.30950444712062"},{"id":"22826","name":"ITAMSAT","type":"PAYLOAD","l1":"1 22826U 93061D   26203.14041631  .00000045  00000-0  33907-4 0  9997","l2":"2 22826  98.6809 270.4591 0008533 348.6901  11.4089 14.31378090712313"},{"id":"23439","name":"RADIO ROSTO","type":"PAYLOAD","l1":"1 23439U 94085A   26203.50292544 -.00000035  00000-0  21752-3 0  9990","l2":"2 23439  64.8140 246.1018 0157197 357.3644   2.6437 11.27583643299888"},{"id":"24278","name":"JAS 2","type":"PAYLOAD","l1":"1 24278U 96046B   26203.42910374 -.00000045  00000-0 -97047-5 0  9994","l2":"2 24278  98.5216  47.4701 0350009   5.1853 355.2765 13.53275827477934"},{"id":"25397","name":"TECHSAT 1B","type":"PAYLOAD","l1":"1 25397U 98043D   26203.46678159  .00000036  00000-0  35822-4 0  9992","l2":"2 25397  99.0091 197.1189 0002327 103.4335 256.7103 14.24434333456353"},{"id":"25544","name":"ISS (ZARYA)","type":"PAYLOAD","l1":"1 25544U 98067A   26203.15321183  .00008859  00000-0  16818-3 0  9994","l2":"2 25544  51.6313 127.0562 0006883 324.3803  35.6725 15.49090344577176"},{"id":"26931","name":"PCSAT","type":"PAYLOAD","l1":"1 26931U 01043C   26203.57078425  .00000104  00000-0  69793-4 0  9993","l2":"2 26931  67.0504 152.7531 0005854 267.2879  92.7553 14.31967120295519"},{"id":"27607","name":"SAUDISAT 1C","type":"PAYLOAD","l1":"1 27607U 02058C   26203.48903566  .00000746  00000-0  10552-3 0  9994","l2":"2 27607  64.5523  19.7554 0074298 255.9504 103.3336 14.83108843269691"},{"id":"27844","name":"CUTE-1","type":"PAYLOAD","l1":"1 27844U 03031E   26203.02043421  .00000248  00000-0  12599-3 0  9994","l2":"2 27844  98.6746 211.1424 0010865  85.1990 275.0430 14.24354732196635"},{"id":"27848","name":"CUBESAT XI 4","type":"PAYLOAD","l1":"1 27848U 03031J   26202.46414799  .00000171  00000-0  94004-4 0  9992","l2":"2 27848  98.6777 210.2780 0010700 103.0346 257.2027 14.23636890196250"},{"id":"27939","name":"MOZHAYETS 4","type":"PAYLOAD","l1":"1 27939U 03042A   26203.66136873  .00000496  00000-0  84521-4 0  9995","l2":"2 27939  98.3486  29.0251 0011833 150.1959 282.2981 14.73522154220779"},{"id":"28895","name":"CUBESAT XI 5","type":"PAYLOAD","l1":"1 28895U 05043F   26202.37477685  .00000932  00000-0  15414-3 0  9995","l2":"2 28895  98.3024 358.7230 0015344  97.2573 263.0378 14.72712744106788"},{"id":"32785","name":"CUTE-1.7+APD 2","type":"PAYLOAD","l1":"1 32785U 08021C   26203.51168664  .00004854  00000-0  30490-3 0  9996","l2":"2 32785  97.8297 185.6775 0006938 268.2388  91.8046 15.09743996990527"},{"id":"32791","name":"SEEDS","type":"PAYLOAD","l1":"1 32791U 08021J   26203.44081651  .00019519  00000-0  59788-3 0  9990","l2":"2 32791  97.7536 203.0544 0003833 141.9870 218.1643 15.33845449992692"},{"id":"32953","name":"YUBELEINY","type":"PAYLOAD","l1":"1 32953U 08025A   26203.58929929 -.00000020  00000-0 -21776-3 0  9993","l2":"2 32953  82.5069 333.4184 0018806 232.0345 127.9036 12.43180754824098"},{"id":"33499","name":"KKS-1 (KISEKI)","type":"PAYLOAD","l1":"1 33499U 09002H   26203.54043928  .00000929  00000-0  12055-3 0  9993","l2":"2 33499  98.1169 126.5424 0008023 165.0575 195.0877 14.83201511941434"},{"id":"35932","name":"SWISSCUBE","type":"PAYLOAD","l1":"1 35932U 09051B   26203.26604623  .00000760  00000-0  15943-3 0  9997","l2":"2 35932  98.3999 111.7611 0008091 100.3347 259.8766 14.62540212894286"},{"id":"35933","name":"BEESAT","type":"PAYLOAD","l1":"1 35933U 09051C   26203.49920290  .00000591  00000-0  12833-3 0  9991","l2":"2 35933  98.3927 111.5595 0006451 110.9506 249.2386 14.61769795894345"},{"id":"35935","name":"ITUPSAT 1","type":"PAYLOAD","l1":"1 35935U 09051E   26203.24702328  .00000571  00000-0  12771-3 0  9995","l2":"2 35935  98.4012 110.4576 0008467 123.6016 236.5993 14.60486031893852"},{"id":"36122","name":"XIWANG-1 (HOPE-1)","type":"PAYLOAD","l1":"1 36122U 09072B   26203.58346773 -.00000238  00000-0 -50710-3 0  9999","l2":"2 36122 100.4042 156.8531 0007759 148.3472 211.8109 13.16439752797661"},{"id":"37224","name":"O/OREOS (USA 219)","type":"PAYLOAD","l1":"1 37224U 10062C   26203.42053629  .00001606  00000-0  15681-3 0  9998","l2":"2 37224  71.9704   0.5182 0014482 351.1937   8.8977 14.93871007121904"},{"id":"37839","name":"JUGNU","type":"PAYLOAD","l1":"1 37839U 11058B   26203.39502277  .00000392  00000-0  65312-4 0  9998","l2":"2 37839  19.9607  94.5197 0018650 105.4868  61.7804 14.13785053764012"},{"id":"37841","name":"SRMSAT","type":"PAYLOAD","l1":"1 37841U 11058D   26203.34684259  .00000350  00000-0  46158-4 0  9998","l2":"2 37841  19.9701 206.6555 0011581 230.1974 157.7925 14.11582083762793"},{"id":"39090","name":"STRAND 1","type":"PAYLOAD","l1":"1 39090U 13009E   26203.42364014  .00000224  00000-0  89597-4 0  9991","l2":"2 39090  98.3941  22.7940 0009711 121.7520 238.4615 14.37181962702120"},{"id":"39417","name":"ZACUBE","type":"PAYLOAD","l1":"1 39417U 13066B   26201.86646474  .00001847  00000-0  14537-3 0  9999","l2":"2 39417  97.7999 164.3670 0044079 137.0238 223.4444 15.01347026685787"},{"id":"39430","name":"GOMX 1","type":"PAYLOAD","l1":"1 39430U 13066Q   26203.52478678  .00000596  00000-0  96615-4 0  9996","l2":"2 39430  97.6470  41.7576 0127608 324.5849  34.6932 14.69552097675107"}]}